Place_Id,Place_Name,Latitude,Longitude,City_Id,Place_Address,Category_Id,Subcategory_Id,Visits,Created_At,Updated_At
1,대구국제공항,,,27,대구 동구 공항로 221-0,1001,10001,288848,,
2,동대구역,,,27,대구 동구 동대구로 550-0,1001,10001,152688,,
3,서대구역,,,27,대구 서구 와룡로 527,1001,10001,25758,,
4,동대구터미널,,,27,대구 동구 동부로 149-0,1001,10001,18739,,
5,북부시외버스터미널,,,27,대구 서구 서대구로 295-0,1001,10001,12723,,
6,서대구고속버스터미널,,,27,대구 북구 팔달로 103-0,1001,10001,5763,,
7,대구역,,,27,대구 북구 태평로 161-0,1001,10001,5322,,
8,현풍시외버스공동정류장,,,27,대구 달성군 현풍중앙로 119-0,1001,10001,1662,,
9,팔공산케이블카,,,27,대구 동구 팔공산로185길 51-0,1001,10002,94684,,
10,앞산케이블카,,,27,대구 남구 앞산순환로 574-114,1001,10002,21421,,
11,사문진주막촌,,,27,대구 달성군 사문진로1길 40-20,1001,10002,21208,,
12,청라언덕,,,27,대구 중구 달구벌대로 2029-0,1001,10002,5837,,
13,논공꽃단지,,,27,대구광역시 달성군 논공읍 남리 471-6,1001,10002,4872,,
14,달창지벚꽃길,,,27,대구 달성군 달창로26길 0-0,1001,10002,4226,,
15,아양기찻길,,,27,대구광역시 동구 신암동 1518,1001,10002,4213,,
16,이팝나무군락지,,,27,대구 달성군 옥포읍 교항리 958,1001,10002,2492,,
17,옥포용연사벚꽃길,,,27,대구 달성군 옥포읍 옥포로 13,1001,10002,1902,,
18,안심습지,,,27,대구 동구 대림동 502-11,1001,10002,1204,,
19,강정고령보자전거길인증센터,,,27,대구 달성군 강정본길 57-0,1001,10002,1169,,
20,옥연지송해공원출렁다리,,,27,대구 달성군 옥포읍 기세리 306,1001,10002,1103,,
21,나비생태원,,,27,대구 동구 팔공로50길 66-0,1001,10002,945,,
22,근대문화골목,,,27,대구 중구 남성로 50-0,1001,10002,846,,
23,안심창조밸리연꽃단지,,,27,대구 동구 대림동 378-1,1001,10002,845,,
24,이웃집수달,,,27,대구 중구 명덕로 99-0,1002,10004,2614,,
25,송해둘레길A코스,,,27,대구 달성군 옥포읍 기세리 969-67,1002,10004,1350,,
26,달성보인증센터,,,27,대구 달성군 논공읍 비슬로 1193,1002,10004,980,,
27,송해둘레길B코스,,,27,대구 달성군 옥포읍 기세리 969-67,1002,10004,656,,
28,대평유료낚시터,,,27,대구 달성군 하빈로 832-0,1002,10005,2402,,
29,동화낚시터,,,27,대구 북구 동변로24길 106-0,1002,10005,1053,,
30,도채유료낚시터,,,27,대구 달성군 묘동3길 122-60,1002,10005,974,,
31,약산낚시터,,,27,대구 달성군 약산덧재길 154-0,1002,10005,965,,
32,무태낚시터,,,27,대구 북구 동변로24길 180-0,1002,10005,698,,
33,무열대체력단련장,,,27,대구 수성구 무열로 56-0,1002,10006,46321,,
34,팔공CC,,,27,대구 동구 팔공산로237길 186-0,1002,10006,27179,,
35,대구체력단련장,,,27,대구 동구 둔산동 936-2,1002,10006,25203,,
36,대구국제사격장,,,27,대구 북구 문주길 170-0,1002,10006,21889,,
37,냉천CC,,,27,대구 달성군 가창로 1037-9,1002,10006,18741,,
38,대구실내빙상장,,,27,대구 북구 고성로 191-0,1002,10006,14529,,
39,달서구청소년수련관,,,27,대구 달서구 상화로 420-0,1002,10006,11203,,
40,렛츠런CCC대구지점,,,27,대구 달성군 가창로175길 6-0,1002,10006,10875,,
41,두류공원인라인스케이트장,,,27,대구 달서구 공원순환로 216-0,1002,10006,8838,,
42,대덕승마장,,,27,대구 달서구 앞산순환로 206-0,1002,10006,8805,,
43,만촌자전거경기장,,,27,대구 수성구 팔현길 241-0,1002,10006,5811,,
44,대구수성구청소년수련관,,,27,대구 수성구 청수로45길 100-0,1002,10006,5616,,
45,서재파크골프장,,,27,대구 달성군 다사읍 다사로 822,1002,10006,4500,,
46,파크골프현풍원오교구장,,,27,대구광역시 달성군 현풍읍 원교리 884-4,1002,10006,4178,,
47,만촌실내롤러스케이트장,,,27,대구 수성구 팔현길 241-0,1002,10006,4151,,
48,대구아이스파크,,,27,대구 동구 입석로1길 69-4,1002,10006,3881,,
49,대구교육낙동강수련원,,,27,대구 달성군 구지서로 131-0,1002,10006,3222,,
50,수림지파크골프장,,,27,대구 달서구 달서대로 241-13,1002,10006,3165,,
51,수성실내아이스링크장,,,27,대구 수성구 용학로 35-5,1002,10006,3003,,
52,대구교육팔공산수련원,,,27,대구 동구 용천로 538-0,1002,10006,2651,,
53,다사파크골프장,,,27,대구 달성군 다사읍 매곡리 344-3,1002,10006,1599,,
54,이월드83타워아이스링크,,,27,대구 달서구 두류공원로 200-0,1002,10006,1562,,
55,놀고롤러스케이트장,,,27,대구 달서구 장기로 242-0,1002,10006,1436,,
56,달구벌승마공원,,,27,대구 달성군 명곡로 118-0,1002,10006,1379,,
57,비슬승마체험장,,,27,대구 달성군 비슬로468길 43-0,1002,10006,1333,,
58,대구체육공원암벽등반장,,,27,대구 수성구 유니버시아드로 180-0,1002,10006,1300,,
59,팔현파크골프장,,,27,대구 수성구 고모동 20-3,1002,10006,963,,
60,동아롤러파크,,,27,대구 수성구 지범로 59-0,1002,10006,895,,
61,강창파크골프장,,,27,대구 달성군 다사읍 매곡리 91,1002,10006,894,,
62,수성구청소년수련원,,,27,대구 수성구 진밭길 409-0,1002,10006,829,,
63,롯데시네마프리미엄만경,,,27,대구 중구 국채보상로 547-0,1003,10007,56933,,
64,씨네80자동차극장,,,27,대구 동구 팔공산로 1184-0,1003,10007,53038,,
65,CGV대구스타디움,,,27,대구 수성구 유니버시아드로 140-0,1003,10007,37921,,
66,CGV대구월성,,,27,대구 달서구 조암로 29-0,1003,10007,34079,,
67,CGV대구한일,,,27,대구 중구 동성로 39-0,1003,10007,32183,,
68,코오롱야외음악당,,,27,대구 달서구 야외음악당로 180-0,1003,10007,30598,,
69,롯데시네마성서,,,27,대구 달서구 성서로 414-0,1003,10007,30448,,
70,메가박스대구이시아,,,27,대구 동구 팔공로49길 51-0,1003,10007,27115,,
71,대구콘서트하우스,,,27,대구 중구 태평로 141-0,1003,10007,26314,,
72,롯데시네마프리미엄칠곡,,,27,대구 북구 학정로 422-0,1003,10007,25375,,
73,계명아트센터,,,27,대구 달서구 달구벌대로 1095-0,1003,10007,20643,,
74,롯데시네마상인,,,27,대구 달서구 월곡로 247-0,1003,10007,20393,,
75,수성아트피아휴관중(2022년11월01일개관예정),,,27,대구 수성구 무학로 180-0,1003,10007,19701,,
76,CGV연경,,,27,대구 북구 동화천로 290-0,1003,10007,19611,,
77,롯데시네마대구현풍,,,27,대구 달성군 테크노상업로 62-0,1003,10007,17960,,
78,롯데시네마대구광장,,,27,대구 서구 달구벌대로 1691-0,1003,10007,17936,,
79,롯데시네마율하,,,27,대구 동구 안심로 80-0,1003,10007,15144,,
80,대덕문화전당,,,27,대구 남구 앞산순환로 478-0,1003,10007,14573,,
81,CGV대구이시아,,,27,대구 동구 팔공로49길 16-0,1003,10007,10450,,
82,롯데시네마동성로,,,27,대구 중구 동성로2길 95-0,1003,10007,9740,,
83,CGV대구칠곡,,,27,대구 북구 동암로 90-0,1003,10007,7090,,
84,메가박스대구,,,27,대구 북구 침산로 93-0,1003,10007,6828,,
85,대구문화예술회관공연관,,,27,대구 달서구 공원순환로 201-0,1003,10007,5861,,
86,메가박스대구신세계,,,27,대구 동구 동부로 149-0,1003,10007,5601,,
87,메가박스북대구,,,27,대구 북구 동암로 100-0,1003,10007,4888,,
88,공간울림,,,27,대구 수성구 범안로64길 18-9,1003,10007,4166,,
89,CGV대구수성,,,27,대구 수성구 지범로 191-0,1003,10007,3895,,
90,패션디자인개발지원센터,,,27,대구 북구 유통단지로14길 17-0,1003,10007,3755,,
91,CGV대구아카데미,,,27,대구 중구 중앙대로 412-0,1003,10007,3101,,
92,한영아트센터,,,27,대구 수성구 달구벌대로 2327-0,1003,10007,2667,,
93,CGV대구현대,,,27,대구 중구 달구벌대로 2077-0,1003,10007,2617,,
94,씨네큐대구이시아점,,,27,대구 동구 팔공로49길 16-0,1003,10007,2460,,
95,대구공연예술연습공간,,,27,대구 남구 명덕로 42-0,1003,10007,1976,,
96,대구학생문화센터대공연장,,,27,대구 달서구 용산로 181-0,1003,10007,1661,,
97,여우별아트홀,,,27,대구 중구 동성로3길 35-0,1003,10007,1643,,
98,대구음악창작소,,,27,대구 남구 중앙대로45길 53-0,1003,10007,1465,,
99,호텔인터불고 엑스코그랜드볼룸,,,27,대구 북구 유통단지로 80-0,1003,10007,931,,
100,베리어스,,,27,대구 수성구 달구벌대로 2881-0,1003,10007,865,,
101,한울림소극장,,,27,대구 남구 계명중앙1길 35-1,1003,10007,830,,
102,EXCO오디토리움,,,27,대구 북구 엑스코로 10-0,1003,10007,723,,
103,소담아트홀,,,27,대구 수성구 청수로38길 56-0,1003,10007,717,,
104,아양아트센터,,,27,대구 동구 효동로2길 24-0,1003,10008,38714,,
105,MRNW,,,27,대구 북구 호국로 300-22,1003,10008,15565,,
106,네이처파크미라클크리스마스,,,27,대구 달성군 가창로 891-0,1003,10008,9420,,
107,비슬산참꽃문화제,,,27,대구 달성군 일연선사길 99-0,1003,10008,3417,,
108,호텔 인터불고 대구카지노,,,27,대구 수성구 팔현길 212-0,1003,10008,2889,,
109,이월드별빛벚꽃축제,,,27,대구 달서구 두류공원로 200-0,1003,10008,2021,,
110,수성못페스티벌,,,27,대구광역시 수성구 두산동 606,1003,10008,1968,,
111,대구수목원국화전시회,,,27,대구 달서구 화암로 342-0,1003,10008,1844,,
112,향촌문화관,,,27,대구 중구 중앙대로 449-0,1003,10008,1844,,
113,대구학생예술창작터,,,27,대구 서구 서대구로45길 22-0,1003,10008,1777,,
114,노사평화의 전당,,,27,대구 달성군 국가산단대로52길 6-0,1003,10008,1402,,
115,고모역복합문화공간,,,27,대구 수성구 고모로 208,1003,10008,1259,,
116,대구콘텐츠코리아랩,,,27,대구 동구 동대구로 471-0,1003,10008,1193,,
117,달서목재문화관,,,27,대구 달서구 앞산순환로 248-0,1003,10008,1008,,
118,대구꽃박람회,,,27,대구 북구 엑스코로 10-0,1003,10008,881,,
119,대구꽃박람회,,,27,대구 북구 유통단지로 110-0,1003,10008,751,,
120,가창카페 아트도서관,,,27,대구 달성군 우록길 131-0,1003,10008,718,,
121,옥연지송해공원,,,27,대구 달성군 옥포읍 기세리 306,1003,10010,195766,,
122,두류공원,,,27,대구 달서구 두류공원로 161-0,1003,10010,90001,,
123,228기념중앙공원,,,27,대구 중구 동성로2길 80-0,1003,10010,84289,,
124,월광수변공원,,,27,대구 달서구 월곡로 5-0,1003,10010,76746,,
125,달성공원,,,27,대구 중구 달성공원로 35-0,1003,10010,66151,,
126,봉무공원,,,27,대구 동구 봉무동 산135-2,1003,10010,39957,,
127,공룡공원,,,27,대구 남구 용두2길 43,1003,10010,25900,,
128,경상감영공원,,,27,대구 중구 경상감영길 99-0,1003,10010,24805,,
129,망우공원,,,27,대구 동구 효목동 산234-38,1003,10010,24213,,
130,운암지수변공원,,,27,대구 북구 구암동 349,1003,10010,18955,,
131,동대구역광장,,,27,대구 동구 동대구로 550-0,1003,10010,16938,,
132,이곡장미공원,,,27,대구 달서구 이곡동 1306-6,1003,10010,16181,,
133,수성패밀리파크,,,27,대구 수성구 팔현길 88-46,1003,10010,14202,,
134,율하체육공원,,,27,대구 동구 금호강변로 278-0,1003,10010,12982,,
135,강변축구장,,,27,대구 북구 조야로2길 113-30,1003,10010,12340,,
136,국채보상운동기념공원,,,27,대구 중구 국채보상로 670-0,1003,10010,12322,,
137,가창체육공원,,,27,대구 달성군 가창로 604-0,1003,10010,11863,,
138,불로동고분공원,,,27,대구 동구 불로동 산5,1003,10010,11430,,
139,다사체육공원,,,27,대구 달성군 다사로 441-0,1003,10010,10481,,
140,앞산공원,,,27,대구 남구 앞산순환로 574-116,1003,10010,10005,,
141,화원명곡체육공원,,,27,대구 달성군 화원읍 인흥1길 12,1003,10010,9090,,
142,침산공원,,,27,대구 북구 침산동 1344-1,1003,10010,8942,,
143,성서체육공원,,,27,대구 달서구 성서공단로22길 25-0,1003,10010,8050,,
144,학산공원,,,27,대구 달서구 월성동 산10-1,1003,10010,7352,,
145,앞산빨래터공원,,,27,대구 남구 대명동 1501-2,1003,10010,7165,,
146,테크노폴리스중앙공원,,,27,대구 달성군 테크노공원로 60-0,1003,10010,6187,,
147,서리지수변생태공원,,,27,대구 북구 동호동 73,1003,10010,6049,,
148,달성노을공원,,,27,대구 달성군 논공읍 하리 899,1003,10010,6006,,
149,월곡역사공원,,,27,대구 달서구 상인로 128-0,1003,10010,5729,,
150,노원체육공원,,,27,대구 북구 노곡동 876,1003,10010,5447,,
151,신기공원,,,27,대구 북구 유통단지로 61,1003,10010,5023,,
152,대구어린이대공원,,,27,대구 수성구 동대구로 176-0,1003,10010,4861,,
153,복현장미공원,,,27,대구 북구 경진로남1길 40-0,1003,10010,4736,,
154,지산공원,,,27,대구 수성구 용학로 267-0,1003,10010,4080,,
155,두류정수장후적지,,,27,대구 달서구 당산로 176-0,1003,10010,3974,,
156,함지근린공원,,,27,대구 북구 동암로38길 12,1003,10010,3958,,
157,갓바위공원,,,27,대구 동구 갓바위로 229-0,1003,10010,3908,,
158,세천늪근린공원,,,27,대구 달성군 다사읍 세천리 289,1003,10010,3828,,
159,공항교강변공원,,,27,대구 북구 복현동 163-16,1003,10010,3804,,
160,신암공원,,,27,대구 동구 신암동 664-18,1003,10010,3610,,
161,대구숲,,,27,대구 달성군 가창로 1003-0,1003,10010,3389,,
162,옻골동산,,,27,대구 북구 구암동 산3-1,1003,10010,3296,,
163,고산골,,,27,대구 남구 고산3길 95-1,1003,10010,3252,,
164,화랑공원,,,27,대구 수성구 만촌로 151-0,1003,10010,3156,,
165,선원공원,,,27,대구 달서구 선원로 203,1003,10010,2939,,
166,진밭골산림공원,,,27,대구 수성구 범물동 921-1,1003,10010,2777,,
167,서재체육공원,,,27,대구 달성군 다사로 0-0,1003,10010,2748,,
168,대현어린이공원,,,27,대구광역시 북구 대현동 112-41,1003,10010,2361,,
169,월광2수변공원,,,27,대구광역시 달서구 도원동 872-2,1003,10010,2331,,
170,와룡윗공원,,,27,대구 달서구 선원남로 5-0,1003,10010,2214,,
171,월배체육공원,,,27,대구 달서구 갈밭남로 76 월배국민체육센터,1003,10010,2063,,
172,죽곡대나무숲,,,27,대구광역시 달성군 다사읍 죽곡리 566-19,1003,10010,1903,,
173,상화동산,,,27,대구 수성구 무학로 112-0,1003,10010,1636,,
174,가창용계체육공원,,,27,대구광역시 달성군 가창면 용계리 124-1,1003,10010,1333,,
175,신천술래잡이놀이터,,,27,대구광역시 남구 봉덕동 839-1,1003,10010,1250,,
176,호림강나루공원,,,27,대구 달서구 대천동 900,1003,10010,1224,,
177,태전공원,,,27,대구 북구 칠곡중앙대로 397-20,1003,10010,1216,,
178,한실공원,,,27,대구 달서구 갈밭로4길 2-16,1003,10010,1193,,
179,본리어린이공원,,,27,대구 달서구 본리동,1003,10010,1094,,
180,선사유적공원,,,27,대구 달서구 진천동 470-38,1003,10010,1064,,
181,각산비나리공원,,,27,대구 동구 각산동 1064,1003,10010,1012,,
182,세천어린이공원,,,27,대구광역시 달성군 다사읍 세천리 1696-1,1003,10010,944,,
183,금호강자연생태공원,,,27,대구 동구 방촌동 1140,1003,10010,883,,
184,대구대표도시숲,,,27,대구 달서구 성당동 474,1003,10010,857,,
185,송현공원,,,27,대구 달서구 송현동 산106-21,1003,10010,776,,
186,야시골공원,,,27,대구 수성구 범어동 산24-1,1003,10010,760,,
187,노변공원,,,27,대구 수성구 노변공원로7길 11-11,1003,10010,730,,
188,관음공원,,,27,대구 북구 칠곡중앙대로91길 21-0,1003,10010,721,,
189,안심공원,,,27,대구 동구 신기동 580,1003,10010,674,,
190,83타워,,,27,대구 달서구 두류공원로 200-0,1003,10011,22537,,
191,달성보전망대,,,27,대구 달성군 논공읍 비슬로 1193,1003,10011,10342,,
192,앞산전망대,,,27,대구 남구 앞산순환로 454-0,1003,10011,5260,,
193,앞산해넘이전망대,,,27,대구 남구 대명동 1501-2,1003,10011,3378,,
194,대구삼성라이온즈파크,,,27,대구 수성구 야구전설로 1-0,1003,10012,84348,,
195,DGB대구은행파크,,,27,대구 북구 고성로 191-0,1003,10012,22771,,
196,대구스타디움보조경기장,,,27,대구 수성구 유니버시아드로 180-0,1003,10012,17959,,
197,대구시민종합스포츠타운사회인야구장,,,27,대구 북구 고성로 191-0,1003,10012,11403,,
198,박주영축구장,,,27,대구 동구 금호강변로 278-0,1003,10012,9951,,
199,두류야구장,,,27,대구 달서구 공원순환로 7-0,1003,10012,9050,,
200,희성전자야구장,,,27,대구 달서구 성서공단북로 61-0,1003,10012,6683,,
201,효진파크,,,27,대구 달성군 원전길 150-0,1003,10012,3267,,
202,달성강변야구장,,,27,대구 달성군 논공읍 위천리 565,1003,10012,3221,,
203,샘프리그야구장,,,27,대구 달성군 하빈면 묘리 864-9,1003,10012,3169,,
204,방천리야구장,,,27,대구 달성군 다사읍 방천리 16-1,1003,10012,2371,,
205,방천구장,,,27,대구 달성군 다사읍 방천리 21-1,1003,10012,2180,,
206,세천리틀야구장,,,27,대구 달성군 다사읍 세천리 553,1003,10012,1936,,
207,검단강변야구장,,,27,대구 북구 검단동 135,1003,10012,1923,,
208,논공축구장,,,27,대구 달성군 논공로 240-0,1003,10012,1651,,
209,세천강변야구장,,,27,대구 달성군 다사읍 세천리 334,1003,10012,1338,,
210,첼시풋살클럽,,,27,대구 동구 호반길 85-0,1003,10012,1185,,
211,옻골동산운동장,,,27,대구광역시 북구 구암동 산3-1,1003,10012,931,,
212,달성풋살클럽,,,27,대구 달성군 비슬로431길 19-0,1003,10012,766,,
213,알파시티축구장,,,27,대구 수성구 알파시티1로 83-0,1003,10012,714,,
214,월배체육공원축구장,,,27,대구 달서구 갈밭남로 76 월배국민체육센터,1003,10012,650,,
215,동촌유원지,,,27,대구 동구 효동로2길 72-0,1003,10013,120477,,
216,화원유원지,,,27,대구 달성군 사문진로1길 40-14,1003,10013,64502,,
217,수성유원지,,,27,대구 수성구 두산동 512,1003,10013,58016,,
218,동촌유원지오리배선착장,,,27,대구 동구 해동로 0-0,1003,10013,1451,,
219,강정유원지,,,27,대구 달성군 다사읍 강정길 22,1003,10013,1155,,
220,EXCO서관,,,27,대구 북구 엑스코로 10-0,1003,10014,218657,,
221,대구미술관,,,27,대구 수성구 미술관로 40-0,1003,10014,59161,,
222,국립대구과학관,,,27,대구 달성군 테크노대로6길 20-0,1003,10014,56668,,
223,디아크,,,27,대구 달성군 강정본길 57-0,1003,10014,47050,,
224,EXCO동관,,,27,대구 북구 유통단지로 110-0,1003,10014,37410,,
225,국립대구박물관,,,27,대구 수성구 청호로 321-0,1003,10014,33172,,
226,대구섬유박물관,,,27,대구 동구 팔공로 227-0,1003,10014,19233,,
227,달성습지생태학습관,,,27,대구 달성군 구라1길 88-0,1003,10014,14153,,
228,대구교육박물관,,,27,대구 북구 대동로1길 40-0,1003,10014,9573,,
229,EXCO신관,,,27,대구 북구 엑스코로 10-0,1003,10014,8729,,
230,대구예술발전소,,,27,대구 중구 달성로22길 31-12,1003,10014,8643,,
231,신전뮤지엄,,,27,대구 북구 관음로 43-0,1003,10014,7852,,
232,국립대구기상과학관,,,27,대구 동구 효동로2길 10-0,1003,10014,7362,,
233,대구방짜유기박물관,,,27,대구 동구 도장길 29-0,1003,10014,6589,,
234,동제미술전시관,,,27,대구 달성군 헐티로10길 18-0,1003,10014,4775,,
235,2.28민주운동기념회관,,,27,대구 중구 2·28길 9-0,1003,10014,2831,,
236,수창청춘맨숀,,,27,대구 중구 달성로26길 32-0,1003,10014,2766,,
237,대구근대역사관,,,27,대구 중구 경상감영길 67-0,1003,10014,2709,,
238,약령시한의약박물관,,,27,대구 중구 달구벌대로415길 49-0,1003,10014,1815,,
239,송해기념관,,,27,대구 달성군 옥포로56길 5-0,1003,10014,1516,,
240,국립대구과학관꿈나무과학관,,,27,대구 달성군 테크노대로6길 20-0,1003,10014,1513,,
241,천주교관덕정순교기념관,,,27,대구 중구 관덕정길 11-0,1003,10014,1255,,
242,낙동강승전기념관,,,27,대구 남구 앞산순환로 574-116,1003,10014,1220,,
243,화성파크드림갤러리,,,27,대구 북구 원대로 130-0,1003,10014,1176,,
244,대구아트파크,,,27,대구 남구 이천로32길 36-0,1003,10014,1154,,
245,영도다움전시관,,,27,대구 중구 공평로4길 39-0,1003,10014,1086,,
246,대구어린이천문대,,,27,대구 수성구 알파시티1로31길 37-0,1003,10014,978,,
247,대구스포츠기념관,,,27,대구 수성구 유니버시아드로 180-0,1003,10014,944,,
248,덕호아트갤러리,,,27,대구 수성구 명덕로 443-3,1003,10014,795,,
249,이월드,,,27,대구 달서구 두류공원로 200-0,1003,10015,180439,,
250,리조트스파밸리네이처파크,,,27,대구 달성군 가창로 891-0,1003,10015,60735,,
251,스파크랜드,,,27,대구 중구 동성로6길 61-0,1003,10015,18787,,
252,대구아쿠아리움,,,27,대구 동구 동부로 149-0,1003,10015,15258,,
253,아르떼수성랜드,,,27,대구 수성구 무학로 42-0,1003,10015,14763,,
254,대구시민안전테마파크,,,27,대구 동구 팔공산로 1155-0,1003,10015,13874,,
255,아이니테마파크,,,27,대구 수성구 유니버시아드로 140-0,1003,10015,13006,,
256,스파밸리,,,27,대구 달성군 가창로 891-0,1003,10015,10148,,
257,히어로플레이파크대구점,,,27,대구 수성구 유니버시아드로 140-0,1003,10015,6802,,
258,잭슨나인스대구점,,,27,대구 달성군 테크노상업로 120-0,1003,10015,6254,,
259,펀더랜드,,,27,대구 수성구 용학로 106-7,1003,10015,5964,,
260,엘리몽,,,27,대구 달서구 조암로 38-0,1003,10015,4509,,
261,와글아이대구반달스퀘어점,,,27,대구 중구 달구벌대로 2095-0,1003,10015,3053,,
262,체리토마토,,,27,대구 수성구 수성로32길 49-15,1003,10015,2951,,
263,땅땅랜드치킨체험테마파크,,,27,대구 동구 팔공로 220-2,1003,10015,2366,,
264,헬로방방월성점,,,27,대구 달서구 조암남로 85-0,1003,10015,2340,,
265,타요키즈카페월성점,,,27,대구 달서구 조암로 17-0,1003,10015,2217,,
266,슈슈봉봉월성점,,,27,대구 달서구 조암로 42-0,1003,10015,2107,,
267,대구엑스코상상체험키즈월드,,,27,대구 북구 엑스코로 10-0,1003,10015,1794,,
268,바운스트램폴린파크대구신세계백화점파미에타운점,,,27,대구 동구 효신로 88-0,1003,10015,1723,,
269,아이터치키즈카페,,,27,대구 북구 동천로 135-5,1003,10015,1572,,
270,리틀비틀죽전점,,,27,대구 달서구 달구벌대로 1525-0,1003,10015,1543,,
271,수성패밀리파크물놀이장,,,27,대구 수성구 팔현길 88-46,1003,10015,1490,,
272,아이랑소금놀이키즈카페,,,27,대구 북구 침산남로 92-0,1003,10015,1371,,
273,우유담따,,,27,대구 북구 대천로 80-0,1003,10015,986,,
274,금호강하중도물놀이장,,,27,대구 북구 노곡동 665,1003,10015,962,,
275,슈슈봉봉디노,,,27,대구 남구 용두2길 42-0,1003,10015,762,,
276,리틀비틀칠곡점,,,27,대구 북구 팔거천동로 221-0,1003,10015,742,,
277,타요키즈카페현대시티아울렛대구점,,,27,대구 동구 동대구로 454-0,1003,10015,732,,
278,안녕자두야디지털키즈카페,,,27,대구 달서구 조암남로32길 20-4,1003,10015,678,,
279,플라플라키즈카페,,,27,대구 달성군 테크노상업로 84-0,1003,10015,657,,
280,이현공원물놀이장,,,27,대구광역시 서구 이현동 산119,1003,10015,639,,
281,북성로기계공구상가,,,27,대구 중구 서성로 82-0,1004,10016,11204,,
282,원대가구명물거리,,,27,대구 서구 고성로 0-0,1004,10016,6126,,
283,코스트코홀세일대구점,,,27,대구 북구 검단로 97-0,1004,10017,342924,,
284,코스트코홀세일대구혁신도시점,,,27,대구 동구 첨단로 10-0,1004,10017,311158,,
285,이마트트레이더스비산점,,,27,대구 서구 팔달로 54-0,1004,10017,217894,,
286,이마트칠성점,,,27,대구 북구 침산로 93-0,1004,10017,196379,,
287,이마트월배점,,,27,대구 달서구 진천로 92-0,1004,10017,191297,,
288,이마트만촌점,,,27,대구 수성구 동원로 136-0,1004,10017,176235,,
289,홈플러스성서점,,,27,대구 달서구 달구벌대로 1467-0,1004,10017,174364,,
290,홈플러스칠곡점,,,27,대구 북구 동암로12길 8-0,1004,10017,127469,,
291,이마트성서점,,,27,대구 달서구 이곡동로 24-0,1004,10017,105740,,
292,이마트반야월점,,,27,대구 동구 안심로 389-2,1004,10017,87422,,
293,롯데마트대구율하점,,,27,대구 동구 안심로 80-0,1004,10017,74778,,
294,홈플러스대구수성점,,,27,대구 수성구 동대구로 95-0,1004,10017,67164,,
295,홈플러스내당점,,,27,대구 서구 달구벌대로 1821-0,1004,10017,56839,,
296,홈플러스상인점,,,27,대구 달서구 월배로 183-0,1004,10017,54396,,
297,홈플러스동촌점,,,27,대구 동구 동촌로 127-0,1004,10017,43247,,
298,홈플러스남대구점,,,27,대구 남구 대명로 116-0,1004,10017,38023,,
299,하나로마트달성점,,,27,대구 달성군 성천로 9-0,1004,10017,14716,,
300,하나로마트성서점,,,27,대구 달서구 용산로 147-0,1004,10017,13470,,
301,이마트감삼점,,,27,대구 달서구 와룡로 143-0,1004,10017,11122,,
302,장보고식자재마트감삼점,,,27,대구 달서구 와룡로 157-0,1004,10017,10816,,
303,대백마트성서점,,,27,대구 달서구 호산동로 155-0,1004,10017,4578,,
304,대상베스트코대명점,,,27,대구 남구 대명로 43-0,1004,10017,2440,,
305,나이스할인마트,,,27,대구 수성구 파동로 96-0,1004,10017,995,,
306,이푸드칠곡점,,,27,대구 북구 칠곡중앙대로126길 41-0,1004,10017,862,,
307,신세계백화점대구점,,,27,대구 동구 동부로 149-0,1004,10018,861949,,
308,더현대대구,,,27,대구 중구 달구벌대로 2077-0,1004,10018,181050,,
309,롯데백화점대구점,,,27,대구 북구 태평로 161-0,1004,10018,173693,,
310,현대백화점대구점,,,27,대구 중구 달구벌대로 2077-0,1004,10018,147366,,
311,롯데백화점상인점,,,27,대구 달서구 월배로 232-0,1004,10018,123736,,
312,대구신세계백화점파미에타운,,,27,대구 동구 효신로 88-0,1004,10018,82769,,
313,동아백화점수성점,,,27,대구 수성구 지범로 191-0,1004,10018,77102,,
314,대구백화점대백프라자프라자점,,,27,대구 중구 명덕로 333-0,1004,10018,50244,,
315,현대백화점 유플렉스대구점,,,27,대구 중구 달구벌대로 2077-0,1004,10018,48800,,
316,동아백화점쇼핑점,,,27,대구 중구 달구벌대로 2085-0,1004,10018,46056,,
317,대구백화점프라자점,,,27,대구 중구 명덕로 333-0,1004,10018,33490,,
318,대구백화점본점 폐점,,,27,대구 중구 동성로 30-0,1004,10018,25243,,
319,동아아울렛강북점,,,27,대구 북구 칠곡중앙대로 416-0,1004,10018,13723,,
320,롯데아울렛이시아폴리스점,,,27,대구 동구 팔공로49길 16-0,1004,10019,93123,,
321,모다아울렛대구점,,,27,대구 달서구 달서대로 411-0,1004,10019,68923,,
322,현대시티아울렛대구점,,,27,대구 동구 동대구로 454-0,1004,10019,52677,,
323,롯데아울렛대구율하점,,,27,대구 동구 안심로 80-0,1004,10019,43527,,
324,퀸스로드,,,27,대구 서구 평리로35길 18-17,1004,10019,33430,,
325,광장코아,,,27,대구 서구 달구벌대로 1703-0,1004,10019,31796,,
326,NC아울렛엑스코점,,,27,대구 북구 유통단지로14길 22-0,1004,10019,23811,,
327,세븐밸리,,,27,대구 북구 동암로 90-0,1004,10019,10935,,
328,동아아울렛강북점,,,27,대구 북구 칠곡중앙대로 416-0,1004,10019,8132,,
329,메트로프라자,,,27,대구 중구 달구벌대로 지하 2160-0,1004,10019,5554,,
330,스펙트럼시티,,,27,대구 북구 침산로 93-0,1004,10019,5486,,
331,대암프라이빗,,,27,대구 중구 동성로 17-0,1004,10019,5343,,
332,네오시티프라자칠곡점,,,27,대구 북구 칠곡중앙대로 412-0,1004,10019,5051,,
333,동성로스파크몰,,,27,대구 중구 동성로3길 84-0,1004,10019,4516,,
334,스타디움몰,,,27,대구 수성구 유니버시아드로 140-0,1004,10019,2958,,
335,자이유,,,27,대구 중구 동성로3길 35-0,1004,10019,2799,,
336,반야월종합쇼핑,,,27,대구 동구 율하동로 143-0,1004,10019,1991,,
337,반달스퀘어,,,27,대구 중구 달구벌대로 2095-0,1004,10019,1653,,
338,칼라스퀘어,,,27,대구 수성구 유니버시아드로 140-0,1004,10019,866,,
339,서문시장,,,27,대구 중구 큰장로26길 45-0,1004,10020,299329,,
340,대구농수산물도매시장,,,27,대구 북구 매천로18길 34-0,1004,10020,171717,,
341,칠성시장,,,27,대구 북구 칠성시장로 28-0,1004,10020,105843,,
342,서문시장2지구종합상가,,,27,대구 중구 큰장로26길 25-0,1004,10020,62140,,
343,서남시장,,,27,대구 달서구 달구벌대로 1643-0,1004,10020,54205,,
344,봉덕신시장,,,27,대구 남구 봉덕로27길 16-23,1004,10020,41076,,
345,방촌종합시장,,,27,대구 동구 동촌로46길 2-0,1004,10020,40617,,
346,불로전통시장,,,27,대구 동구 팔공로26길 9-1,1004,10020,39625,,
347,대구광역시수산물도매시장,,,27,대구 북구 매천로 63-0,1004,10020,39114,,
348,관문시장,,,27,대구 남구 관문시장2길 43-0,1004,10020,37302,,
349,동구시장,,,27,대구 동구 효목로 8-0,1004,10020,37269,,
350,와룡시장,,,27,대구 달서구 성서서로 347-1,1004,10020,31426,,
351,평화시장,,,27,대구 동구 아양로9길 10-0,1004,10020,29496,,
352,현풍백년도깨비시장,,,27,대구 달성군 비슬로130길 53-1,1004,10020,28299,,
353,성당시장,,,27,대구 남구 성당로 196-0,1004,10020,28235,,
354,팔달시장,,,27,대구 북구 팔달로37길 11-0,1004,10020,25345,,
355,월배시장,,,27,대구 달서구 월배로24길 13-0,1004,10020,25037,,
356,대명시장,,,27,대구 남구 명덕로 60-0,1004,10020,23747,,
357,대평리시장,,,27,대구 서구 문화로49길 25-0,1004,10020,16681,,
358,수성시장,,,27,대구 수성구 들안로 285-57,1004,10020,16039,,
359,서부시장,,,27,대구 서구 달서로28길 6-7,1004,10020,15169,,
360,목련시장,,,27,대구 수성구 용학로42길 9-0,1004,10020,14395,,
361,반야월종합시장,,,27,대구 동구 율하동로 144-0,1004,10020,14014,,
362,번개시장,,,27,대구 중구 태평로 177-2,1004,10020,13479,,
363,효목시장,,,27,대구 동구 효동로15길 0-0,1004,10020,12117,,
364,남문시장,,,27,대구 중구 명륜로 70-0,1004,10020,11358,,
365,달서시장,,,27,대구 달서구 당산로 35-0,1004,10020,11164,,
366,칠곡시장,,,27,대구 북구 칠곡중앙대로 530-3,1004,10020,10764,,
367,산격종합시장,,,27,대구 북구 대동로1길 34-0,1004,10020,10435,,
368,동대구시장,,,27,대구 북구 대현로20길 30-0,1004,10020,10163,,
369,신매시장,,,27,대구 수성구 신매로 94-0,1004,10020,10098,,
370,대동종합시장,,,27,대구 달서구 상원로 22-24,1004,10020,9704,,
371,관음시장,,,27,대구 북구 관음중앙로28길 1-0,1004,10020,9613,,
372,별별상상칠성야시장,,,27,대구광역시 북구 칠성동1가 276-83,1004,10020,9142,,
373,서문시장5지구,,,27,대구 중구 큰장로26길 6-0,1004,10020,8637,,
374,화원전통시장,,,27,대구 달성군 비슬로512길 66-0,1004,10020,8584,,
375,황금시장,,,27,대구 수성구 청솔로 19-0,1004,10020,8502,,
376,원대신시장,,,27,대구 서구 달서로54길 6-0,1004,10020,8350,,
377,청구시장,,,27,대구 수성구 만촌로 66-0,1004,10020,8204,,
378,공항시장,,,27,대구 동구 해동로3길 6-0,1004,10020,7954,,
379,송라시장,,,27,대구 동구 동부로5길 14-0,1004,10020,7418,,
380,대구중앙청과,,,27,대구 북구 매천로18길 34-0,1004,10020,7192,,
381,방천시장,,,27,대구 중구 달구벌대로 2222-0,1004,10020,7164,,
382,교동시장,,,27,대구 중구 교동길 40-0,1004,10020,7087,,
383,새길시장,,,27,대구 서구 달서로4길 17-23,1004,10020,6486,,
384,이현시장,,,27,대구 서구 문화로33길 24-0,1004,10020,6212,,
385,상동시장,,,27,대구 수성구 상화로5길 13-3,1004,10020,6162,,
386,두류종합시장,,,27,대구 달서구 당산동길 9-0,1004,10020,6064,,
387,영선시장,,,27,대구 남구 중앙대로 216-0,1004,10020,6043,,
388,신평리시장,,,27,대구 서구 국채보상로52길 33-0,1004,10020,5031,,
389,원고개시장,,,27,대구 서구 북비산로65길 3-0,1004,10020,4767,,
390,서대구시장,,,27,대구 달서구 명덕로2길 30-0,1004,10020,4445,,
391,침산골목시장,,,27,대구 북구 침산남로7길 15-0,1004,10020,4203,,
392,만평시장,,,27,대구 서구 달서천로41길 86-0,1004,10020,4063,,
393,성서용산시장,,,27,대구 달서구 성지로 66-1,1004,10020,3800,,
394,효성청과,,,27,대구 북구 매천로18길 34-0,1004,10020,3700,,
395,중리시장,,,27,대구 서구 국채보상로31길 12-0,1004,10020,3645,,
396,서문시장야시장,,,27,대구 중구 큰장로26길 45-0,1004,10020,3450,,
397,도원시장,,,27,대구 달서구 도원로동길 4-5,1004,10020,3374,,
398,서남신시장,,,27,대구 달서구 달구벌대로329길 32-0,1004,10020,3198,,
399,축산물도매시장,,,27,대구 북구 검단북로11길 11-0,1004,10020,2989,,
400,역전시장,,,27,대구 동구 동부로16길 9-0,1004,10020,2859,,
401,영선신시장,,,27,대구 남구 영선시장2길 51-0,1004,10020,2780,,
402,대곡시장,,,27,대구 달서구 도원로 20-0,1004,10020,2632,,
403,팔달신시장,,,27,대구 북구 팔달로33길 59-0,1004,10020,2515,,
404,옥포수산물직판장,,,27,대구 달성군 원전1길 14-0,1004,10020,2312,,
405,송경종합시장,,,27,대구 달서구 앞산순환로49길 73-0,1004,10020,2045,,
406,중평시장,,,27,대구 서구 서대구로17길 16-0,1004,10020,2035,,
407,송현주공시장,,,27,대구 달서구 송현로12안길 0-0,1004,10020,2011,,
408,화원천내시장,,,27,대구 달성군 화원로7길 1-0,1004,10020,1942,,
409,구암종합시장,,,27,대구 북구 팔거천동로4길 25-0,1004,10020,1923,,
410,코엑스,,,27,대구 북구 검단로 151-0,1004,10020,1774,,
411,동서시장,,,27,대구 동구 아양로37길 24-0,1004,10020,1751,,
412,서문시장1지구,,,27,대구 중구 큰장로28길 10-0,1004,10020,1719,,
413,용산큰시장,,,27,대구 달서구 달구벌대로301길 175-0,1004,10020,1697,,
414,복현종합시장,,,27,대구 북구 경진로1길 78-0,1004,10020,1642,,
415,수성하이츠쇼핑몰,,,27,대구 수성구 수성로 393-0,1004,10020,1639,,
416,서변중앙시장,,,27,대구 북구 호국로43길 27-0,1004,10020,1606,,
417,태전중앙시장,,,27,대구 북구 태전로 15-0,1004,10020,1495,,
418,광덕시장,,,27,대구 남구 자유6길 50-0,1004,10020,1429,,
419,명덕시장,,,27,대구 남구 대명로 291-0,1004,10020,1248,,
420,지산목련시장,,,27,대구 수성구 용학로42길 9-0,1004,10020,1152,,
421,한반도소금,,,27,대구 북구 노원로 274-0,1004,10020,1094,,
422,달구지푸드,,,27,대구 달성군 비슬로 1871-0,1004,10020,1060,,
423,동광소금상사,,,27,대구 북구 유통단지로7길 45-0,1004,10020,985,,
424,대구능금시장,,,27,대구 북구 칠성남로41길 21-0,1004,10020,887,,
425,중동시장,,,27,대구 수성구 수성로35길 23-0,1004,10020,869,,
426,매호시장,,,27,대구 수성구 달구벌대로641길 17-2,1004,10020,829,,
427,구평리시장,,,27,대구 서구 평리동 1621-8,1004,10020,794,,
428,매천수산,,,27,대구 북구 매천로18길 34-0,1004,10020,782,,
429,남부시장,,,27,대구 남구 현충로19길 43 남부시장,1004,10020,777,,
430,논공중앙상가시장,,,27,대구 달성군 용호로2길 12-0,1004,10020,732,,
431,서구시장,,,27,대구 서구 국채보상로45길 33-0,1004,10020,641,,
432,충혼탑,,,27,대구 남구 앞산순환로 540-0,1005,10021,5076,,
433,도동서원,,,27,대구 달성군 도동서원로 1-0,1005,10022,21241,,
434,남평문씨본리세거지,,,27,대구 달성군 인흥3길 16-0,1005,10022,14640,,
435,대구향교,,,27,대구 중구 명륜로 112-0,1005,10022,12482,,
436,대구불로동고분군,,,27,대구 동구 불로동 산1-16,1005,10022,6615,,
437,신숭겸장군유적지,,,27,대구 동구 신숭겸길 17-0,1005,10022,6510,,
438,대구도동측백나무숲,,,27,대구 동구 도동 산78-1,1005,10022,5969,,
439,육신사,,,27,대구 달성군 육신사길 64-0,1005,10022,5702,,
440,달성하목정,,,27,대구 달성군 하목정길 56-10,1005,10022,5255,,
441,노태우대통령생가,,,27,대구 동구 용진길 172-0,1005,10022,3634,,
442,녹동서원,,,27,대구 달성군 우록길 218-0,1005,10022,1934,,
443,구암서원숭현사,,,27,대구 북구 연암공원로17길 20-0,1005,10022,1443,,
444,북지장사대웅전,,,27,대구 동구 도장길 243-0,1005,10022,1387,,
445,칠곡향교,,,27,대구 북구 칠곡중앙대로 597-0,1005,10022,855,,
446,동화사대웅전,,,27,대구 동구 동화사1길 1-0,1005,10022,785,,
447,모명재,,,27,대구 수성구 달구벌대로525길 14-23,1005,10022,743,,
448,동화사,,,27,대구 동구 동화사1길 1-0,1005,10023,79903,,
449,파계사,,,27,대구 동구 파계로 741-0,1005,10023,38444,,
450,용연사,,,27,대구 달성군 용연사길 260-0,1005,10023,19584,,
451,유가사,,,27,대구 달성군 유가사길 161-0,1005,10023,16231,,
452,석가사,,,27,대구 수성구 달구벌대로568길 23-0,1005,10023,8355,,
453,대한불교천태종대성사,,,27,대구 달서구 장기로 52-0,1005,10023,7144,,
454,도성암,,,27,대구 달성군 도성길 180-0,1005,10023,5745,,
455,도림사,,,27,대구 동구 인산로 242-0,1005,10023,5432,,
456,대견사,,,27,대구 달성군 일연선사길 177-0,1005,10023,5067,,
457,안일사,,,27,대구 남구 앞산순환로 440-0,1005,10023,4939,,
458,남지장사,,,27,대구 달성군 남지장사길 95-0,1005,10023,4339,,
459,부인사,,,27,대구 동구 팔공산로 967-28,1005,10023,3772,,
460,광덕사,,,27,대구 달성군 헐티로 1190-0,1005,10023,3192,,
461,청계사,,,27,대구 수성구 대흥동 626,1005,10023,2493,,
462,북지장사,,,27,대구 동구 도장길 243-0,1005,10023,2208,,
463,보현사,,,27,대구 중구 문우관길 65-0,1005,10023,1914,,
464,정법사,,,27,대구 동구 동북로 397-0,1005,10023,1900,,
465,동대사,,,27,대구 수성구 달구벌대로541길 79-25,1005,10023,1817,,
466,은적사,,,27,대구 남구 앞산순환로 574-120,1005,10023,1469,,
467,임휴사,,,27,대구 달서구 앞산순환로 12-25,1005,10023,1282,,
468,통천사,,,27,대구 동구 아양로 260-8,1005,10023,1216,,
469,불광사,,,27,대구 남구 명덕로32길 40-0,1005,10023,1198,,
470,서봉사,,,27,대구 남구 명덕로54길 34-0,1005,10023,1128,,
471,운흥사,,,27,대구 달성군 헐티로 1068-0,1005,10023,1058,,
472,금용사,,,27,대구 달서구 공원순환로 213-0,1005,10023,981,,
473,소재사,,,27,대구 달성군 일연선사길 77-0,1005,10023,934,,
474,대한불교진각종희락심인당,,,27,대구 중구 명륜로12길 33-22,1005,10023,805,,
475,삼보사,,,27,대구 수성구 파동로22길 47-0,1005,10023,774,,
476,법왕사,,,27,대구 수성구 파동로51길 96-0,1005,10023,772,,
477,대원사,,,27,대구 동구 연경지묘로 123,1005,10023,677,,
478,한마음선원대구지원,,,27,대구 수성구 수성로41길 76-0,1005,10023,667,,
479,맥도날드대구침산DT점,,,27,대구 북구 침산로 120-0,1008,10029,27434,,
480,맥도날드대구수성DT점,,,27,대구 수성구 달구벌대로 2345-0,1008,10029,25102,,
481,맥도날드대구시지DT점,,,27,대구 수성구 달구벌대로 3199-0,1008,10029,21105,,
482,마고플레인아양점,,,27,대구 동구 해동로 107-0,1008,10029,17726,,
483,윤옥연할매떡볶이본점,,,27,대구 수성구 들안로77길 11-0,1008,10029,16093,,
484,맥도날드대구동호DT점,,,27,대구 동구 안심로 403-0,1008,10029,15618,,
485,맥도날드대구복현DT점,,,27,대구 북구 동북로 303-0,1008,10029,15290,,
486,맥도날드대구진천DT점,,,27,대구 달서구 월배로 67-0,1008,10029,15288,,
487,맥도날드대구희망DT점,,,27,대구 수성구 수성로 238-0,1008,10029,15173,,
488,맥도날드대구교대DT점,,,27,대구 남구 중앙대로 225-0,1008,10029,14878,,
489,맥도날드대구황금DT점,,,27,대구 수성구 청수로 157-0,1008,10029,14099,,
490,디어밸리,,,27,대구 동구 파계로 360-0,1008,10029,13706,,
491,신천궁전떡볶이,,,27,대구 수성구 국채보상로162길 72-0,1008,10029,13428,,
492,남산제빵소,,,27,대구 중구 달구벌대로414길 20-0,1008,10029,12653,,
493,뜨삽수성본점,,,27,대구 수성구 용학로 106-7,1008,10029,12400,,
494,맥도날드방촌DT점,,,27,대구 동구 동촌로 243-0,1008,10029,12117,,
495,맥도날드대구상인DT점,,,27,대구 달서구 월곡로 338-0,1008,10029,12015,,
496,맥도날드대구평리DT점,,,27,대구 서구 서대구로 95-0,1008,10029,11879,,
497,유가제빵소,,,27,대구 달성군 테크노중앙대로1길 35-0,1008,10029,11869,,
498,KFC황금동점,,,27,대구 수성구 동대구로 155-0,1008,10029,11864,,
499,맥도날드대구이곡DT점,,,27,대구 달서구 이곡공원로 8-0,1008,10029,11432,,
500,스테이블모먼트월배점,,,27,대구 달서구 조암남로32길 24-0,1008,10029,11189,,
501,맥도날드대구태전DT점,,,27,대구 북구 칠곡중앙대로 303-0,1008,10029,11042,,
502,버거킹경대병원역DT점,,,27,대구 중구 달구벌대로 2194-0,1008,10029,10764,,
503,삼송1957,,,27,대구 수성구 수성못2길 26-0,1008,10029,10749,,
504,버거킹대구만촌점,,,27,대구 수성구 달구벌대로 2622-0,1008,10029,10748,,
505,맥도날드대구본리DT점,,,27,대구 달서구 와룡로 134-0,1008,10029,10000,,
506,맥도날드대구모다SK DT점,,,27,대구 달서구 달서대로 455-0,1008,10029,9969,,
507,중앙떡볶이,,,27,대구 중구 동성로2길 81-0,1008,10029,9901,,
508,맥도날드대구두류DT점,,,27,대구 달서구 달구벌대로 1684-0,1008,10029,9729,,
509,버거킹대구산격DT점,,,27,대구 북구 검단로 29-0,1008,10029,9575,,
510,꽃피는화덕피자D485대구수성못점,,,27,대구 수성구 용학로 111-0,1008,10029,9562,,
511,맥도날드칠곡2호DT점,,,27,대구 북구 구암로 83-0,1008,10029,9335,,
512,맥도날드대구용산DT점,,,27,대구 달서구 용산로 222-0,1008,10029,9227,,
513,고인돌,,,27,대구 동구 아양로9길 5-0,1008,10029,9225,,
514,삼송빵집본점,,,27,대구 중구 중앙대로 397-0,1008,10029,8838,,
515,빠다롤더테라스,,,27,대구 달서구 조암남로14길 42-0,1008,10029,8758,,
516,시지본,,,27,대구 수성구 노변로 79-0,1008,10029,8283,,
517,버거킹대구상인SK DT점,,,27,대구 달서구 월배로 200-0,1008,10029,8192,,
518,우즈베이커리카페,,,27,대구 동구 송라로10길 2-0,1008,10029,7707,,
519,스쿨푸드 대구월성CGV점,,,27,대구 달서구 조암로 29-0,1008,10029,7650,,
520,트레이더스베이커리비산점,,,27,대구 서구 팔달로 54-0,1008,10029,7603,,
521,맥도날드대구만촌DT점,,,27,대구 수성구 달구벌대로 2634-0,1008,10029,7556,,
522,버거킹대구평리DT점,,,27,대구 서구 국채보상로 298-0,1008,10029,7418,,
523,버거킹대구테크노폴리스점,,,27,대구 달성군 테크노중앙대로 243-0,1008,10029,7083,,
524,크리스피크림도넛대구범어점,,,27,대구 수성구 달구벌대로 2538-0,1008,10029,6863,,
525,버거킹죽전네거리점,,,27,대구 달서구 달구벌대로 1536-0,1008,10029,6500,,
526,티제이버거,,,27,대구 수성구 화랑로2길 114-0,1008,10029,6381,,
527,라살루드,,,27,대구 수성구 무학로 87-0,1008,10029,6137,,
528,스테이블모먼트반석점,,,27,대구 북구 복현로8길 19-36,1008,10029,6123,,
529,맥도날드대구다사DT점,,,27,대구 달성군 달구벌대로 825-0,1008,10029,5790,,
530,파리바게뜨동대구터미널점,,,27,대구 동구 동부로 154-0,1008,10029,5721,,
531,아눅베이커스,,,27,대구 수성구 동대구로58길 15-0,1008,10029,5497,,
532,바우어,,,27,대구 수성구 용학로 361-0,1008,10029,5407,,
533,버거킹대구서재FS점,,,27,대구 달성군 서재로 66-0,1008,10029,5305,,
534,데일리브라운,,,27,대구 수성구 달구벌대로625길 9-0,1008,10029,5263,,
535,우즈베이커리성서점,,,27,대구 달서구 달서대로 573-0,1008,10029,5143,,
536,신전떡볶이본점,,,27,대구 북구 칠성로17길 13-0,1008,10029,4953,,
537,버거킹대구대명FS점,,,27,대구 남구 대명로 89-0,1008,10029,4950,,
538,크래프터,,,27,대구 남구 현충로 41-1,1008,10029,4868,,
539,김해통닭,,,27,대구 중구 국채보상로151길 10-0,1008,10029,4797,,
540,버거킹대구칠곡3지구점,,,27,대구 북구 팔거천동로 224-0,1008,10029,4656,,
541,만수통닭수성못본점,,,27,대구 수성구 수성못길 8-0,1008,10029,4645,,
542,롯데리아현풍테크노폴리스점,,,27,대구 달성군 테크노대로 61-0,1008,10029,4595,,
543,SUBWAY대구칠곡3지구점,,,27,대구 북구 학정로 422-0,1008,10029,4505,,
544,롯데리아대구성당DT점,,,27,대구 달서구 구마로 209-0,1008,10029,4492,,
545,폭스브롯,,,27,대구 달서구 상화로 157-1,1008,10029,4468,,
546,바르미스시뷔페두산점,,,27,대구 수성구 무학로 78-0,1008,10030,37649,,
547,리안,,,27,대구 수성구 교학로4길 48-0,1008,10030,31033,,
548,앞산주택,,,27,대구 남구 현충로1길 16-0,1008,10030,20836,,
549,수봉반점[중식],,,27,대구 북구 대현남로2길 60-0,1008,10030,17703,,
550,취팔선진천점 [중식],,,27,대구 달서구 상화로 55-0,1008,10030,14608,,
551,가야성[중식],,,27,대구 달서구 월배로83길 7-0,1008,10030,13664,,
552,연경반점[중식],,,27,대구 수성구 수성로 222-0,1008,10030,13584,,
553,유창반점남산점 [중식],,,27,대구 중구 명륜로 20-0,1008,10030,13254,,
554,온기정[일식],,,27,대구 수성구 수성못6길 9-0,1008,10030,13102,,
555,미즈컨테이너레이크플레이트점,,,27,대구 수성구 수성못6길 10-0,1008,10030,12821,,
556,진흥반점[중식],,,27,대구 남구 이천로28길 43-2,1008,10030,11864,,
557,삿뽀로대구점,,,27,대구 수성구 용학로 134-0,1008,10030,11735,,
558,푸나왈라,,,27,대구 수성구 수성못2길 3-0,1008,10030,11695,,
559,내안에,,,27,대구 수성구 무학로 85-0,1008,10030,11606,,
560,신짜오본점,,,27,대구 수성구 수성못6길 20-6,1008,10030,9454,,
561,홍구원가창점 [중식],,,27,대구 달성군 가창로176길 9-0,1008,10030,9170,,
562,팬아시아수성못점,,,27,대구 수성구 수성못2길 15-0,1008,10030,8857,,
563,홍구원수성점 [중식],,,27,대구 수성구 동대구로 167-0,1008,10030,8723,,
564,후꾸스시[일식],,,27,대구 수성구 동대구로20길 66-0,1008,10030,8653,,
565,앙뜨레누보본점,,,27,대구 수성구 수성못6길 20-0,1008,10030,8282,,
566,코시스스시앤파스타장기점,,,27,대구 달서구 용산로 82-0,1008,10030,7904,,
567,현짬뽕[중식],,,27,대구 남구 대봉로 89-0,1008,10030,7903,,
568,대동반점[중식],,,27,대구 북구 대현남로 49-0,1008,10030,7886,,
569,만솥[중식],,,27,대구 수성구 동대구로 237-0,1008,10030,6942,,
570,더포본점,,,27,대구 달서구 와룡로 169-0,1008,10030,6929,,
571,대가웍본점 [중식],,,27,대구 달성군 현풍동로29길 5-0,1008,10030,6662,,
572,짬뽕지존대구수성점 [중식],,,27,대구 수성구 무학로 99-0,1008,10030,6642,,
573,금강회초밥,,,27,대구 수성구 청수로 115-0,1008,10030,6621,,
574,신신반점수성점 [중식],,,27,대구 수성구 무학로 111-0,1008,10030,6592,,
575,길선회초밥,,,27,대구 달서구 월배로73길 6-0,1008,10030,6537,,
576,로렐트리,,,27,대구 동구 효동로6길 122-0,1008,10030,6315,,
577,다이닝슬로우라이프,,,27,대구 수성구 상록로2길 49-0,1008,10030,6299,,
578,하롱베이,,,27,대구 수성구 무학로 97-0,1008,10030,5709,,
579,강정보돌짜장[중식],,,27,대구 달성군 강정길 13-0,1008,10030,5431,,
580,칭밍[중식],,,27,대구 수성구 용학로 106-7,1008,10030,5332,,
581,길세이로무시대구본점,,,27,대구 수성구 들안로 93-1,1008,10030,4974,,
582,고미텐,,,27,대구 수성구 동원로 6-0,1008,10030,4956,,
583,팔선생[중식],,,27,대구 수성구 범어천로 170-1,1008,10030,4876,,
584,라벨라쿠치나,,,27,대구 수성구 무학로 151-0,1008,10030,4734,,
585,몽짬뽕[중식],,,27,대구 수성구 용학로30길 12-0,1008,10030,4603,,
586,민수사,,,27,대구 수성구 들안로 19-0,1008,10030,4560,,
587,뭄뭄,,,27,대구 달서구 월배로15길 8-0,1008,10030,4510,,
588,쿄우다이,,,27,대구 달서구 월배로46길 72-0,1008,10030,4329,,
589,들안길먹자골목,,,27,대구광역시 수성구 상동 677,1008,10034,14554,,
590,삼성웰스토리코스트코대구혁신도시,,,27,대구 동구 첨단로 10-0,1008,10034,9729,,
591,장기동먹거리촌,,,27,대구광역시 달서구 본리동 1196,1008,10034,6077,,
592,앞산카페거리,,,27,대구 남구 대명남로 189-0,1008,10034,4564,,
593,아웃백스테이크하우스대구황금점,,,27,대구 수성구 동대구로 219-0,1008,10031,24663,,
594,VIPS대구수성교점,,,27,대구 중구 달구벌대로 2232-0,1008,10031,20970,,
595,미성복어본점,,,27,대구 수성구 들안로 87-0,1008,10031,19554,,
596,아웃백스테이크하우스죽전점,,,27,대구 달서구 달구벌대로 1545-0,1008,10031,18024,,
597,푸른회식당,,,27,대구 서구 달구벌대로375길 14-1,1008,10031,16422,,
598,미친뷔페,,,27,대구 달서구 구마로 97-0,1008,10031,14904,,
599,고모역쭈꾸미,,,27,대구 수성구 고모로 188-0,1008,10031,14541,,
600,가마솥에누른밥,,,27,대구 동구 서촌로23길 13-11,1008,10031,14255,,
601,샤브20수성점,,,27,대구 수성구 무학로 83-0,1008,10031,13948,,
602,강원도집,,,27,대구 달성군 가창로176길 18-0,1008,10031,13829,,
603,하늘천따지,,,27,대구 동구 서촌로 129-0,1008,10031,13559,,
604,쿠우쿠우현풍테크노점,,,27,대구 달성군 테크노중앙대로 254-0,1008,10031,12959,,
605,제니스뷔페수성점,,,27,대구 수성구 달구벌대로 2435-0,1008,10031,12296,,
606,아리조나막창,,,27,대구 수성구 용학로25길 45-0,1008,10031,11773,,
607,마루막창수성점,,,27,대구 수성구 수성못2길 5-0,1008,10031,11634,,
608,구공탄막창,,,27,대구 남구 대명로 303-0,1008,10031,11578,,
609,팔공산닭갈비,,,27,대구 동구 파계로 154-8,1008,10031,10602,,
610,가창닭갈비,,,27,대구 달성군 가창로119길 13-0,1008,10031,10505,,
611,삼수장어신천동로점,,,27,대구 수성구 신천동로 442-0,1008,10031,10419,,
612,방어진 참가자미,,,27,대구 수성구 수성못2길 35-0,1008,10031,10182,,
613,싱싱뽈락회,,,27,대구 수성구 수성못2길 17-0,1008,10031,9706,,
614,아트리움,,,27,대구 수성구 국채보상로186길 151-0,1008,10031,9581,,
615,제니스뷔페달서점,,,27,대구 달서구 와룡로 143-0,1008,10031,9533,,
616,의성무침회본점,,,27,대구 서구 달구벌대로375길 17-0,1008,10031,9311,,
617,뜨돈진천본점,,,27,대구 달서구 진천로9길 30-0,1008,10031,8959,,
618,미남장어수성점,,,27,대구 수성구 들안로 56-0,1008,10031,8697,,
619,테라스스시뷔페,,,27,대구 달서구 와룡로 169-0,1008,10031,8694,,
620,서가앤쿡수성못점,,,27,대구 수성구 용학로 62-0,1008,10031,8585,,
621,라라코스트대구들안길점,,,27,대구 수성구 들안로 33-1,1008,10031,8477,,
622,오스테리아밀즈,,,27,대구 수성구 동원로1길 26-0,1008,10031,8321,,
623,바르미샤브칼국수본점,,,27,대구 수성구 들안로 82-0,1008,10031,8319,,
624,애슐리퀸즈대구이월드점,,,27,대구 달서구 두류공원로 200-0,1008,10031,8314,,
625,다담뜰한식뷔페본점,,,27,대구 수성구 달구벌대로 2577-0,1008,10031,8191,,
626,양곱화,,,27,대구 수성구 들안로 80-0,1008,10031,7994,,
627,미림식당,,,27,대구 중구 국채보상로93길 6-0,1008,10031,7880,,
628,천연애,,,27,대구 달서구 앞산순환로 289-0,1008,10031,7762,,
629,등촌샤브칼국수두산수성못점,,,27,대구 수성구 동대구로7길 30-0,1008,10031,7735,,
630,호어모아,,,27,대구 남구 안지랑로5길 88-0,1008,10031,7660,,
631,홍익돈까스황금점,,,27,대구 수성구 동대구로 90-0,1008,10031,7649,,
632,대성기사한식뷔페,,,27,대구 서구 달서천로 342-0,1008,10031,7501,,
633,1997빠리바닷가재,,,27,대구 수성구 용학로 84-0,1008,10031,7420,,
634,조돌해녀수성직영점,,,27,대구 수성구 수성못2길 36-0,1008,10031,7417,,
635,해금강본점,,,27,대구 동구 신암남로 133-0,1008,10031,7386,,
636,더뷔페앳인터불고,,,27,대구 수성구 팔현길 212-0,1008,10031,7381,,
637,만복이쭈꾸미낙지볶음동대구점,,,27,대구 동구 동대구로 448-0,1008,10031,7364,,
638,버들식당,,,27,대구 달서구 두류공원로28길 8-0,1008,10031,7352,,
639,스펠바운드,,,27,대구 수성구 용학로 106-7,1008,10031,7276,,
640,구공탄막창,,,27,대구 서구 서대구로 120-0,1008,10031,7191,,
641,또이스치킨찜닭본점,,,27,대구 남구 양지북길 100-0,1008,10031,7011,,
642,대쿠이본점,,,27,대구 남구 중앙대로51길 38-2,1008,10031,6969,,
643,기와집,,,27,대구 북구 대천로7길 6-10,1008,10031,6963,,
644,쿠우쿠우대구시지점,,,27,대구 수성구 달구벌대로 3294-0,1008,10031,6784,,
645,초이스엠,,,27,대구 동구 팔공산로 260-0,1008,10031,6773,,
646,지오네키친,,,27,대구 남구 현충로 21-0,1008,10031,6655,,
647,홍익돈까스반야월점,,,27,대구 동구 안심로 240-0,1008,10031,6577,,
648,뉴욕바닷가재대구,,,27,대구 수성구 용학로 106-7,1008,10031,6559,,
649,벽강물회,,,27,대구 북구 침산남로 62-0,1008,10031,6440,,
650,마루막창동촌점,,,27,대구 동구 효동로2길 33-7,1008,10031,6429,,
651,기리,,,27,대구 수성구 달구벌대로492길 27-0,1008,10031,6390,,
652,뉴욕바닷가재대구본점,,,27,대구 수성구 용학로 106-7,1008,10031,6345,,
653,홍익돈까스칠곡점,,,27,대구 북구 구리로 173-0,1008,10031,6058,,
654,착한낙지수성점,,,27,대구 수성구 들안로 105-0,1008,10031,6010,,
655,방천가족족발,,,27,대구 중구 달구벌대로446길 7-16,1008,10031,5961,,
656,더플라워대구두류점,,,27,대구 달서구 달구벌대로 1748-0,1008,10031,5900,,
657,울진참가자미회수성점,,,27,대구 수성구 들안로 297-0,1008,10031,5880,,
658,똘똘이식당,,,27,대구 서구 달구벌대로375길 31-0,1008,10031,5747,,
659,산호횟집진천점,,,27,대구 달서구 진천로16길 39-0,1008,10031,5617,,
660,다담뜰한식뷔페칠곡점,,,27,대구 북구 칠곡중앙대로 642-0,1008,10031,5551,,
661,아라한참치,,,27,대구 수성구 들안로 41-0,1008,10031,5504,,
662,탑골식당,,,27,대구 동구 동화사2길 21-7,1008,10031,5477,,
663,착한낙지대구두류점,,,27,대구 달서구 야외음악당로 243-0,1008,10031,5421,,
664,진해숯불막창,,,27,대구 남구 성당로 272-0,1008,10031,5411,,
665,에이엠,,,27,대구 달서구 상원로 163-0,1008,10031,5333,,
666,센도리,,,27,대구 수성구 들안로 38-0,1008,10031,5308,,
667,성주막창,,,27,대구 남구 대명로 3-0,1008,10031,5261,,
668,샤브향서재점,,,27,대구 달성군 서재본길 45-0,1008,10031,5252,,
669,명산한우식육식당,,,27,대구 동구 서촌로 122-0,1008,10031,5104,,
670,홍익돈까스대구복현점,,,27,대구 북구 동북로 187-1,1008,10031,5089,,
671,샤브향대구수목원점,,,27,대구 달서구 화암로 323-0,1008,10031,4986,,
672,제비원식당,,,27,대구 서구 달서천로87길 4-0,1008,10031,4965,,
673,울진왕돌참가자미회,,,27,대구 수성구 청수로3길 5-0,1008,10031,4956,,
674,쭈꾸미네,,,27,대구 동구 효동로6길 43-0,1008,10031,4910,,
675,후포회수산,,,27,대구 남구 중앙대로32길 13-0,1008,10031,4851,,
676,울진참가자미수성점,,,27,대구 수성구 들안로 297-0,1008,10031,4768,,
677,루미너스,,,27,대구 수성구 희망로 204-0,1008,10031,4756,,
678,서민수산회,,,27,대구 수성구 달구벌대로641길 7-0,1008,10031,4719,,
679,팔수식당,,,27,대구 달성군 가창로176길 21-0,1008,10031,4674,,
680,전원돈까스,,,27,대구 중구 동성로6길 2-23,1008,10031,4633,,
681,홍익돈까스수변공원점,,,27,대구 달서구 월곡로 10-0,1008,10031,4616,,
682,앞산울진대게본점,,,27,대구 남구 앞산순환로 559-1,1008,10031,4521,,
683,차콜우드,,,27,대구 달성군 행정길 196-32,1008,10031,4484,,
684,한티불낙,,,27,대구 수성구 들안로 13-0,1008,10031,4483,,
685,월성복집죽전점,,,27,대구 달서구 와룡로 215-0,1008,10031,4412,,
686,삼수장어두산오거리점,,,27,대구 수성구 무학로 123-0,1008,10031,4397,,
687,조돌해녀본점,,,27,대구 북구 동천로 125-10,1008,10031,4376,,
688,원대덕골민물장어,,,27,대구 남구 앞산순환로 409-0,1008,10031,4328,,
689,복어잡는사람들황금점,,,27,대구 수성구 동대구로 209-0,1008,10031,4291,,
690,오퐁드부아,,,27,대구 달성군 주리2길 104-0,1008,10032,38211,,
691,룰리커피,,,27,대구 수성구 고모로 188-0,1008,10032,37647,,
692,스타벅스대구팔공산점,,,27,대구 동구 파계로 650-0,1008,10032,29335,,
693,헤이마,,,27,대구 동구 파계로 583-0,1008,10032,29259,,
694,스타벅스대구수성호수R점,,,27,대구 수성구 용학로 56-0,1008,10032,26257,,
695,룰리커피가창점,,,27,대구 달성군 우록길 76-0,1008,10032,24988,,
696,대새목장,,,27,대구 달성군 가창로93길 523-0,1008,10032,23374,,
697,스타벅스대구공평DT점,,,27,대구 중구 국채보상로 642-0,1008,10032,22541,,
698,스타벅스대구침산DT점,,,27,대구 북구 침산로 126-0,1008,10032,22291,,
699,스타벅스대구동촌유원지점,,,27,대구 동구 효동로2길 45-0,1008,10032,22179,,
700,스타벅스대구칠곡대로DT점,,,27,대구 북구 칠곡중앙대로 348-0,1008,10032,22036,,
701,스타벅스동대구로DT점,,,27,대구 동구 동대구로 422-0,1008,10032,21743,,
702,티아이티에프,,,27,대구 동구 팔공산로 1169-0,1008,10032,20071,,
703,스타벅스대구칠성DT점,,,27,대구 북구 중앙대로 524-0,1008,10032,18980,,
704,스타벅스대구테크노폴리스점,,,27,대구 달성군 테크노상업로 84-0,1008,10032,18568,,
705,자연충만,,,27,대구 달성군 마비정길 163-0,1008,10032,18554,,
706,스타벅스수성레이크점,,,27,대구 수성구 수성못길 4-0,1008,10032,18196,,
707,스타벅스대구수성네거리DT점,,,27,대구 수성구 들안로 342-0,1008,10032,18080,,
708,스타벅스대구평리DT점,,,27,대구 서구 서대구로 89-0,1008,10032,17356,,
709,스타벅스대구감삼DT점,,,27,대구 달서구 와룡로 131-0,1008,10032,17336,,
710,스타벅스대구두류DT점,,,27,대구 달서구 달구벌대로 1796-0,1008,10032,16959,,
711,트리팜,,,27,대구 동구 서촌로 133-0,1008,10032,15710,,
712,까사드테하,,,27,대구 달성군 녹문길 16-11,1008,10032,15701,,
713,스타벅스대구중동DT점,,,27,대구 수성구 수성로 243-0,1008,10032,15155,,
714,스타벅스대구성서ICDT점,,,27,대구 달서구 달구벌대로 1393-0,1008,10032,14196,,
715,도케비커피,,,27,대구 달성군 음동길 130-15,1008,10032,13779,,
716,온더레일,,,27,대구 달성군 가창로93길 52-0,1008,10032,13449,,
717,커피스미스대구수성레이크점,,,27,대구 수성구 용학로 82-0,1008,10032,13200,,
718,핸즈커피수성못점,,,27,대구 수성구 용학로 106-5,1008,10032,13051,,
719,스타벅스대구상인DT점,,,27,대구 달서구 월곡로 334-0,1008,10032,12883,,
720,덕천418,,,27,대구 수성구 유니버시아드로 66-46,1008,10032,12611,,
721,핸즈커피동촌유원지점,,,27,대구 동구 효동로6길 5-6,1008,10032,12605,,
722,스타벅스대구유통단지점,,,27,대구 북구 유통단지로8길 78-0,1008,10032,12432,,
723,161커피스튜디오,,,27,대구 달성군 비슬로 581-0,1008,10032,12099,,
724,커피플라자,,,27,대구 남구 앞산순환로87길 49-0,1008,10032,12085,,
725,브리니팔공,,,27,대구 동구 팔공로206길 4-0,1008,10032,11785,,
726,핸즈커피성북교점,,,27,대구 북구 침산로 198-0,1008,10032,11658,,
727,빌리웍스1,,,27,대구 북구 고성북로10길 41-0,1008,10032,11559,,
728,우즈베이커리카페수성호수점,,,27,대구 수성구 수성못6길 3-0,1008,10032,11530,,
729,슬로우스톤,,,27,대구 달성군 휴양림길 109-0,1008,10032,11511,,
730,카페담,,,27,대구 달성군 유가사2길 15-0,1008,10032,11333,,
731,에녹커피,,,27,대구 동구 아양로 344-0,1008,10032,11061,,
732,카페비슬,,,27,대구 달성군 음동길 201-0,1008,10032,11026,,
733,투썸플레이스대구동촌유원지점,,,27,대구 동구 효동로6길 46-0,1008,10032,11013,,
734,대봉정,,,27,대구 중구 명덕로 249-0,1008,10032,10928,,
735,스타벅스대구만촌DT점,,,27,대구 수성구 달구벌대로 2636-0,1008,10032,10823,,
736,넘버더스타즈,,,27,대구 남구 현충로 54-0,1008,10032,10694,,
737,카페찬스,,,27,대구 달성군 옥포로 301-0,1008,10032,10625,,
738,베를린에스프레소바,,,27,대구 달서구 미리샘길 82-0,1008,10032,10520,,
739,아눅앞산,,,27,대구 남구 앞산순환로 459-0,1008,10032,10305,,
740,스타벅스대구봉무점,,,27,대구 동구 팔공로51길 15-11,1008,10032,10272,,
741,카르멜,,,27,대구 달성군 달구벌대로 616-0,1008,10032,10251,,
742,스타벅스대구수목원점,,,27,대구 달서구 화암로 379-0,1008,10032,10194,,
743,핸즈커피세천점,,,27,대구 달성군 세천북로14길 8-0,1008,10032,10191,,
744,메종듀미디,,,27,대구 동구 서촌로21길 11-0,1008,10032,9915,,
745,스타벅스대구상동DT점,,,27,대구 수성구 무학로 29-0,1008,10032,9913,,
746,민스크,,,27,대구 남구 현충로6길 9-2,1008,10032,9835,,
747,엔제리너스아일랜드점,,,27,대구 수성구 용학로 76-0,1008,10032,9811,,
748,스타벅스대구수성도서관DT점,,,27,대구 수성구 화랑로 112-0,1008,10032,9607,,
749,스타벅스대구중동네거리DT점,,,27,대구 수성구 청수로 51-0,1008,10032,9487,,
750,스타벅스대구들안길DT점,,,27,대구 수성구 들안로 85-0,1008,10032,9388,,
751,데우스커피,,,27,대구 수성구 동대구로14길 15-6,1008,10032,9213,,
752,베르겐에스프레소바,,,27,대구 동구 파계로138길 64-0,1008,10032,9149,,
753,슬로우라이프,,,27,대구 수성구 동대구로77길 33-6,1008,10032,9040,,
754,마고플레인강정보점,,,27,대구 달성군 강정본길 68-18,1008,10032,8828,,
755,산엘아르카,,,27,대구 달성군 휴양림길 416-0,1008,10032,8817,,
756,프라그란자,,,27,대구 동구 파계로 622-0,1008,10032,8653,,
757,레이틀리92,,,27,대구 동구 초례로 6-0,1008,10032,8641,,
758,투썸플레이스대구칠곡학정점,,,27,대구 북구 호국로 808-0,1008,10032,8374,,
759,투썸플레이스대구앞산점,,,27,대구 남구 현충로 24-0,1008,10032,8281,,
760,비움,,,27,대구 북구 침산남로9길 43-0,1008,10032,8224,,
761,스테이550,,,27,대구 달성군 성화로 50-0,1008,10032,8163,,
762,오르다카페,,,27,대구 남구 안지랑로 11-0,1008,10032,8151,,
763,커피명가구지점,,,27,대구 달성군 내리길 19-5,1008,10032,8146,,
764,스타벅스대구황금DT점,,,27,대구 수성구 청수로 164-0,1008,10032,8112,,
765,더디퍼,,,27,대구 중구 서성로 67-0,1008,10032,7966,,
766,커피맛을조금아는남자본점,,,27,대구 수성구 범어천로 153-0,1008,10032,7957,,
767,벨베꼼메,,,27,대구 달성군 세천북로 66-0,1008,10032,7916,,
768,슈가파인,,,27,대구 달성군 헐티로 899-0,1008,10032,7582,,
769,마르텐사이트,,,27,대구 달성군 하빈로 363-0,1008,10032,7551,,
770,스타벅스대구칠곡점,,,27,대구 북구 학정로 422-0,1008,10032,7426,,
771,롤러커피,,,27,대구 중구 달구벌대로414길 36-0,1008,10032,7410,,
772,인스퍼레이션디,,,27,대구 동구 효동로6길 57-0,1008,10032,7310,,
773,호반더블루,,,27,대구 달성군 달창로 420-0,1008,10032,7268,,
774,스타벅스동대구터미널점,,,27,대구 동구 동부로30길 12-0,1008,10032,7224,,
775,스타벅스대구도원DT점,,,27,대구 달서구 상화로 314-0,1008,10032,7223,,
776,스타벅스대구진천역점,,,27,대구 달서구 월배로 91-0,1008,10032,7175,,
777,르그랑팔레드고바슨수성점,,,27,대구 수성구 용학로 92-4,1008,10032,7155,,
778,스타벅스대구계명대점,,,27,대구 달서구 계대동문로 13-0,1008,10032,7068,,
779,카페공가,,,27,대구 달성군 주리1길 52-12,1008,10032,7053,,
780,김진수로스터리카페,,,27,대구 중구 이천로 205-0,1008,10032,7044,,
781,스타벅스대구죽전역점,,,27,대구 달서구 와룡로 169-0,1008,10032,6949,,
782,스타벅스대구성서점,,,27,대구 달서구 이곡공원로 26-0,1008,10032,6872,,
783,파스쿠찌대구신암점,,,27,대구 동구 아양로 72-0,1008,10032,6868,,
784,곳카페,,,27,대구 동구 팔공로 525-0,1008,10032,6660,,
785,파계마루,,,27,대구 동구 파계로 613-0,1008,10032,6590,,
786,멍리버,,,27,대구 달성군 현풍서로71길 3-0,1008,10032,6573,,
787,엔제리너스대구광장점,,,27,대구 달서구 달구벌대로 1706-0,1008,10032,6461,,
788,스타벅스대구죽곡점,,,27,대구 달성군 달구벌대로 861-0,1008,10032,6327,,
789,스타벅스대구시지점,,,27,대구 수성구 달구벌대로 3216-0,1008,10032,6237,,
790,스타벅스대구월곡DT점,,,27,대구 달서구 월곡로 225-0,1008,10032,6198,,
791,스타벅스대구수성동점,,,27,대구 수성구 명덕로 460-0,1008,10032,6174,,
792,스타벅스대구앞산DT점,,,27,대구 남구 현충로 32-0,1008,10032,6166,,
793,커들포드,,,27,대구 동구 팔공로 1334-0,1008,10032,6120,,
794,스타벅스대구월성점,,,27,대구 달서구 조암로 41-0,1008,10032,6068,,
795,스타벅스대구서부정류장역점,,,27,대구 달서구 구마로 265-0,1008,10032,6032,,
796,스타벅스대구동천점,,,27,대구 북구 동천로 123-0,1008,10032,5976,,
797,투썸플레이스대구성당점,,,27,대구 달서구 구마로 225-0,1008,10032,5768,,
798,두낫디스터브세천점,,,27,대구 달성군 세천로7길 7-15,1008,10032,5728,,
799,우니카트,,,27,대구 수성구 범어천로 151-4,1008,10032,5454,,
800,스타벅스대구영대병원역DT점,,,27,대구 남구 봉덕로 25-0,1008,10032,5452,,
801,파스쿠찌대구황금점,,,27,대구 수성구 청수로 130-0,1008,10032,5448,,
802,스타벅스국립대구박물관DT점,,,27,대구 수성구 청호로 318-0,1008,10032,5418,,
803,마고플레인비스타혁신점,,,27,대구 동구 혁신대로 104-0,1008,10032,5322,,
804,팜테이블수성못점,,,27,대구 수성구 용학로 115-0,1008,10032,5303,,
805,고바슨커피아레나점,,,27,대구 북구 고성로 191-0,1008,10032,5247,,
806,투썸플레이스대구팔공순환로점,,,27,대구 동구 서촌로 81-0,1008,10032,5244,,
807,투썸플레이스고성3가점,,,27,대구 북구 원대로 52-0,1008,10032,5243,,
808,Enelrio,,,27,대구 달성군 비슬로 1137-0,1008,10032,5224,,
809,투썸플레이스대구황금점,,,27,대구 수성구 청수로 107-0,1008,10032,5211,,
810,스타벅스대구복현DT점,,,27,대구 북구 대학로 150-0,1008,10032,5199,,
811,카페목하,,,27,대구 달성군 가창로10길 56-0,1008,10032,5184,,
812,할리스대구팔달교DT점,,,27,대구 서구 팔달로 34-0,1008,10032,5157,,
813,낫온리커피어반델리,,,27,대구 수성구 용학로 106-7,1008,10032,5143,,
814,밀림,,,27,대구 남구 용두길 16-0,1008,10032,5085,,
815,게이블루프커피,,,27,대구 달성군 강정본길 77-0,1008,10032,5083,,
816,스타벅스대구각산역DT점,,,27,대구 동구 안심로 383-0,1008,10032,5066,,
817,파르크우록,,,27,대구 달성군 우록길 155-10,1008,10032,5020,,
818,커피로드333,,,27,대구 달성군 현풍로 268-0,1008,10032,4901,,
819,수수밀소,,,27,대구 동구 매여로 320-0,1008,10032,4664,,
820,설빙대구수성못점,,,27,대구 수성구 수성못2길 53-0,1008,10032,4648,,
821,스타벅스대구칠곡읍내DT점,,,27,대구 북구 칠곡중앙대로 631-0,1008,10032,4614,,
822,커피명가라핀카점,,,27,대구 수성구 국채보상로 953-1,1008,10032,4580,,
823,포켓,,,27,대구 수성구 수성못길 20-0,1008,10032,4471,,
824,카페아이올리,,,27,대구 수성구 달구벌대로652길 16-0,1008,10032,4416,,
825,커피스미스동촌유원지점,,,27,대구 동구 효동로6길 118-0,1008,10032,4393,,
826,투썸플레이스대구가창점,,,27,대구 달성군 가창로176길 30-0,1008,10032,4340,,
827,스타벅스대구수성하이츠점,,,27,대구 수성구 수성로 393-0,1008,10032,4332,,
828,투썸플레이스대구두산동DT점,,,27,대구 수성구 무학로 121-0,1008,10032,4288,,
829,대덕식당,,,27,대구 남구 앞산순환로 443-0,1008,10033,45837,,
830,고령촌돼지찌개앞산본점,,,27,대구 남구 앞산순환로 440-1,1008,10033,34273,,
831,낙영찜갈비본점,,,27,대구 중구 동덕로36길 9-17,1008,10033,31941,,
832,서민갈비,,,27,대구 수성구 들안로 8-5,1008,10033,31784,,
833,조조칼국수본점,,,27,대구 수성구 국채보상로 912-0,1008,10033,31695,,
834,곤지곤지본점 [한식],,,27,대구 달성군 퇴계길 43-8,1008,10033,28652,,
835,정미네,,,27,대구 달성군 헐티로2길 26-0,1008,10033,27273,,
836,큰나무집,,,27,대구 달성군 우록길 24-0,1008,10033,26329,,
837,원조현풍박소선할매집곰탕본점,,,27,대구 달성군 현풍중앙로 56-1,1008,10033,25936,,
838,곤지곤지[한식],,,27,대구 동구 서촌로 14-0,1008,10033,23334,,
839,조조칼국수앞산본점,,,27,대구 남구 현충로15길 13-1,1008,10033,21885,,
840,팔공노을철판구이,,,27,대구 동구 서촌로 98-1,1008,10033,21359,,
841,생수정식당,,,27,대구 달성군 우록3길 58-0,1008,10033,19076,,
842,동림식당,,,27,대구 동구 파계로116길 49-0,1008,10033,17531,,
843,동이식당[한식],,,27,대구 달서구 한실로6길 165-7,1008,10033,16378,,
844,현풍닭칼국수본점,,,27,대구 달성군 현풍중앙로 50-0,1008,10033,15480,,
845,미성당납작만두본점,,,27,대구 중구 명덕로 93-0,1008,10033,15183,,
846,칠성할매콩국수본점,,,27,대구 북구 침산남로 40-0,1008,10033,14593,,
847,황토시골집,,,27,대구 동구 파계로 602-0,1008,10033,14384,,
848,용지봉[한식],,,27,대구 수성구 들안로 9-0,1008,10033,14196,,
849,푸주옥,,,27,대구 수성구 청수로 110-0,1008,10033,13183,,
850,팔공산장작구이,,,27,대구 동구 서촌로 82-0,1008,10033,13159,,
851,망향비빔국수대구수성점,,,27,대구 수성구 무학로 89-0,1008,10033,12511,,
852,옹심이칼국수,,,27,대구 달성군 다사로 655-0,1008,10033,12230,,
853,제일콩국,,,27,대구 중구 남산로6안길 47-0,1008,10033,12155,,
854,경복궁대구점 [한식],,,27,대구 수성구 용학로 134-0,1008,10033,11956,,
855,홍천뚝배기,,,27,대구 동구 공항로 130-0,1008,10033,11857,,
856,공심옥,,,27,대구 수성구 유니버시아드로 318-0,1008,10033,11733,,
857,국일생갈비,,,27,대구 중구 국채보상로 492-0,1008,10033,11686,,
858,K2정문식당,,,27,대구 동구 아양로 341-0,1008,10033,11583,,
859,명동돼지한마리,,,27,대구 수성구 범어천로 48-0,1008,10033,11046,,
860,오늘잡은소대구칠곡점,,,27,대구 북구 구리로 183-8,1008,10033,10858,,
861,봉산찜갈비,,,27,대구 중구 동덕로36길 9-18,1008,10033,10481,,
862,곤지곤지현풍점,,,27,대구 달성군 테크노순환로12길 24-0,1008,10033,10425,,
863,팔공산맥,,,27,대구 북구 칠곡중앙대로 329-0,1008,10033,10382,,
864,신마산식당본점,,,27,대구 남구 현충로 214-0,1008,10033,10371,,
865,이가네더덕밥,,,27,대구 북구 이곡길 35-41,1008,10033,10071,,
866,걸리버막창,,,27,대구 북구 옥산로 53-0,1008,10033,10031,,
867,큰기와집,,,27,대구 동구 서촌로 106-0,1008,10033,10025,,
868,8번식당,,,27,대구 중구 서성로13길 8-0,1008,10033,9934,,
869,팔공상강한우프라자침산점,,,27,대구 북구 침산남로 88-0,1008,10033,9759,,
870,국일따로국밥,,,27,대구 중구 국채보상로 571-0,1008,10033,9696,,
871,곤지곤지옹기보리밥[한식],,,27,대구 남구 앞산순환로 465-1,1008,10033,9606,,
872,태능집,,,27,대구 중구 달성로22길 86-0,1008,10033,9440,,
873,왕거미식당,,,27,대구 중구 국채보상로 696-8,1008,10033,9281,,
874,동봉,,,27,대구 동구 팔공로 995-0,1008,10033,8962,,
875,가창댐식당,,,27,대구 달성군 헐티로 1056-0,1008,10033,8931,,
876,더기네장어[한식],,,27,대구 동구 팔공산로2길 88-0,1008,10033,8825,,
877,남도명가[한식],,,27,대구 수성구 들안로 40-0,1008,10033,8611,,
878,하얀집,,,27,대구 달성군 가창로155길 9-0,1008,10033,8404,,
879,아사다라,,,27,대구 수성구 용학로 116-12,1008,10033,8269,,
880,산중식당,,,27,대구 동구 팔공산로185길 55-0,1008,10033,8195,,
881,금수강산해물탕찜,,,27,대구 수성구 들안로 60-0,1008,10033,8090,,
882,금산삼계탕,,,27,대구 수성구 들안로 49-0,1008,10033,7824,,
883,봉화나물밥,,,27,대구 수성구 달구벌대로568길 28-0,1008,10033,7619,,
884,여원찜갈비,,,27,대구 북구 복현로 182-27,1008,10033,7508,,
885,녹양구이,,,27,대구 수성구 무학로17길 21-0,1008,10033,7379,,
886,금산곰탕,,,27,대구 달성군 구례길 1-0,1008,10033,7306,,
887,소풍가,,,27,대구 수성구 들안로 20-0,1008,10033,7171,,
888,동곡원조할매손칼국수,,,27,대구 달성군 달구벌대로55길 97-5,1008,10033,7134,,
889,승정원한우,,,27,대구 수성구 들안로 73-0,1008,10033,7026,,
890,돈마을식당,,,27,대구 달성군 녹문길 19-0,1008,10033,6798,,
891,숨쉬는순두부들안길점,,,27,대구 수성구 들안로 44-0,1008,10033,6773,,
892,돼지만본점,,,27,대구 달서구 상화북로 192-0,1008,10033,6727,,
893,엄마밥상세천점,,,27,대구 달성군 세천북로7길 8-0,1008,10033,6629,,
894,신라간장게장,,,27,대구 동구 서촌로 78-0,1008,10033,6555,,
895,감나무집,,,27,대구 달성군 우록3길 73-0,1008,10033,6505,,
896,보백관서재점,,,27,대구 달성군 서재본길 11-0,1008,10033,6491,,
897,본가안동국시본점,,,27,대구 수성구 희망로 216-0,1008,10033,6481,,
898,이향식당,,,27,대구 수성구 월드컵로5안길 17-3,1008,10033,6476,,
899,만반,,,27,대구 수성구 들안로 32-0,1008,10033,6470,,
900,안심농장직영식육식당,,,27,대구 동구 대경로 1-0,1008,10033,6433,,
901,까꾸리손칼국수,,,27,대구 수성구 월드컵로5길 17-0,1008,10033,6419,,
902,두류해물탕본점,,,27,대구 달서구 달구벌대로 1511-0,1008,10033,6394,,
903,조조칼국수,,,27,대구 달서구 와룡로 169-0,1008,10033,6336,,
904,동인동한옥집김치찜대구점,,,27,대구 중구 동덕로 168-2,1008,10033,6320,,
905,제형면옥본점,,,27,대구 수성구 들안로 104-0,1008,10033,6320,,
906,울릉도,,,27,대구 수성구 청수로 96-0,1008,10033,6309,,
907,곤지곤지침산점,,,27,대구 북구 침산남로37길 27-0,1008,10033,6306,,
908,최고산면옥,,,27,대구 수성구 무학로 125-11,1008,10033,6277,,
909,갈비만대구본점,,,27,대구 달서구 조암로 58-0,1008,10033,6179,,
910,수가성순두부전문점,,,27,대구 달서구 이곡공원로1길 54-0,1008,10033,6044,,
911,소담뜰[한식],,,27,대구 달서구 이곡서로 25-0,1008,10033,5991,,
912,다담뜰한식뷔페달성점,,,27,대구 달성군 비슬로 581-0,1008,10033,5939,,
913,성서국수,,,27,대구 달서구 성서로76길 32-0,1008,10033,5847,,
914,대동면옥,,,27,대구 중구 국채보상로102길 28-0,1008,10033,5839,,
915,기찻길참숯구이,,,27,대구 서구 달서천로 232-0,1008,10033,5809,,
916,애기똥풀[한식],,,27,대구 달서구 앞산순환로 197-0,1008,10033,5805,,
917,생고기송학구이,,,27,대구 수성구 들안로 65-0,1008,10033,5791,,
918,일월정[한식],,,27,대구 달성군 논공로 697-5,1008,10033,5763,,
919,전농부의풀꽃밥상,,,27,대구 동구 파계로 497-0,1008,10033,5709,,
920,꽃잔디식당,,,27,대구 달성군 달구벌대로 750-0,1008,10033,5662,,
921,청통한우식육식당,,,27,대구 수성구 무학로21길 56-0,1008,10033,5604,,
922,감나무집,,,27,대구 수성구 동대구로80길 24-0,1008,10033,5591,,
923,일송정,,,27,대구 동구 서촌로 112-0,1008,10033,5587,,
924,황장군평리점,,,27,대구 서구 서대구로 85-0,1008,10033,5585,,
925,호남정[한식],,,27,대구 수성구 들안로 24-0,1008,10033,5577,,
926,곽옥자삼대곰탕들안길본점,,,27,대구 수성구 들안로 64-0,1008,10033,5538,,
927,청진동해장국,,,27,대구 수성구 유니버시아드로 336-0,1008,10033,5532,,
928,미풍해장국,,,27,대구 수성구 용학로 128-0,1008,10033,5531,,
929,청담동[한식],,,27,대구 수성구 만촌로8길 25-0,1008,10033,5481,,
930,청도돼지국밥,,,27,대구 남구 대봉로 65-0,1008,10033,5394,,
931,다전손칼국수,,,27,대구 수성구 지범로21길 15-0,1008,10033,5382,,
932,면장수,,,27,대구 수성구 무학로 105-0,1008,10033,5371,,
933,올바릇나사리식당,,,27,대구 동구 팔공산로 1179-0,1008,10033,5371,,
934,손중헌원조논메기매운탕,,,27,대구 달성군 부곡2길 7-9,1008,10033,5310,,
935,매남골식당,,,27,대구 동구 매여로 190-0,1008,10033,5183,,
936,맛찬들왕소금구이본점,,,27,대구 북구 호국로39길 26-0,1008,10033,5183,,
937,가원식당,,,27,대구 동구 팔공산로199길 6-3,1008,10033,5180,,
938,고향차밭골,,,27,대구 동구 팔공산로 339-0,1008,10033,5170,,
939,극동구이,,,27,대구 수성구 들안로 1-0,1008,10033,5168,,
940,미소팔공한우직판장,,,27,대구 동구 팔공산로 222-0,1008,10033,5137,,
941,산골기사식당,,,27,대구 동구 팔공산로 1666-0,1008,10033,5092,,
942,고기굽는남자,,,27,대구 수성구 들안로 402-0,1008,10033,5037,,
943,단골식당,,,27,대구 북구 칠성시장로7길 9-1,1008,10033,5016,,
944,동이옥,,,27,대구 수성구 들안로 63-0,1008,10033,4997,,
945,김태희손국수집,,,27,대구 달성군 옥포로 597-0,1008,10033,4984,,
946,안동생갈비석경,,,27,대구 북구 학남로3길 32-1,1008,10033,4900,,
947,대정옥,,,27,대구 수성구 달구벌대로 2338-0,1008,10033,4890,,
948,형님동태[한식],,,27,대구 달서구 달서대로91길 14-0,1008,10033,4880,,
949,전원숯불수성본점,,,27,대구 수성구 용학로 129-0,1008,10033,4814,,
950,황장군상인점,,,27,대구 달서구 월배로 261-0,1008,10033,4737,,
951,갈비만본점,,,27,대구 달성군 테크노상업로 110-0,1008,10033,4727,,
952,정든대자연식당,,,27,대구 달성군 가창로93길 160-0,1008,10033,4717,,
953,호박추어탕,,,27,대구 달서구 이곡서로7길 17-0,1008,10033,4700,,
954,푸주옥두류점,,,27,대구 달서구 달구벌대로 1860-0,1008,10033,4645,,
955,원조아삼겹,,,27,대구 수성구 만촌로 105-0,1008,10033,4627,,
956,청라연[한식],,,27,대구 남구 두류공원로 62-0,1008,10033,4620,,
957,본가안동갈비,,,27,대구 남구 중앙대로22길 219-0,1008,10033,4601,,
958,진미식육식당,,,27,대구 서구 달서천로83길 13-0,1008,10033,4586,,
959,벽우팔공산점,,,27,대구 동구 팔공산로 331-0,1008,10033,4560,,
960,동인정,,,27,대구 동구 파계로 572-0,1008,10033,4557,,
961,개정수성못점,,,27,대구 수성구 수성못2길 3-0,1008,10033,4501,,
962,양파식당,,,27,대구 달서구 감삼길 16-0,1008,10033,4497,,
963,제1국수집,,,27,대구 북구 노원로 242-0,1008,10033,4483,,
964,식당이백도씨,,,27,대구 달서구 진천로 36-0,1008,10033,4451,,
965,신라식당,,,27,대구 중구 중앙대로 406-8,1008,10033,4441,,
966,밥을짓다,,,27,대구 동구 팔공산로9길 6-1,1008,10033,4421,,
967,편대장영화식당범어점,,,27,대구 수성구 동대구로 291-0,1008,10033,4413,,
968,청학식당,,,27,대구 남구 봉덕로1길 52-1,1008,10033,4398,,
969,성주돼지국밥,,,27,대구 달서구 선원로 281-0,1008,10033,4350,,
970,소문난부자돼지국밥본점,,,27,대구 북구 칠곡중앙대로 606-1,1008,10033,4346,,
971,살맛나는집,,,27,대구 수성구 희망로 137-1,1008,10033,4329,,
972,이모식당,,,27,대구 중구 서성로13길 9-0,1008,10033,4328,,
973,제형면옥범어점,,,27,대구 수성구 국채보상로 908-0,1008,10033,4326,,
974,금마루[한식],,,27,대구 동구 아양로 253-0,1008,10033,4323,,
975,무진장함버지기,,,27,대구 동구 둔산로 8-0,1008,10033,4323,,
976,산중식당파계사점,,,27,대구 동구 파계로 596-0,1008,10033,4321,,
977,고기굽는남자,,,27,대구 동구 동부로 166-0,1008,10033,4319,,
978,사파키친,,,27,대구 동구 동부로34길 10-0,1008,10033,4306,,
979,최정산,,,27,대구광역시 달성군 가창면 주리 산96-3,1006,10024,3471,,
980,함지산,,,27,대구 북구 노곡동 산1-3,1006,10024,1262,,
981,굿밭골,,,27,대구광역시 달성군 유가읍 양리 575-2,1006,10024,1079,,
982,수성못,,,27,대구광역시 수성구 두산동 606,1006,10025,237221,,
983,운암지,,,27,대구광역시 북구 구암동 349,1006,10025,17022,,
984,달창저수지,,,27,대구광역시 달성군 유가읍 본말리 1008,1006,10025,13846,,
985,성당못,,,27,대구광역시 달서구 성당동 195-1,1006,10025,10770,,
986,대명유수지,,,27,대구 달서구 달서대로 351-0,1006,10025,10433,,
987,나불지,,,27,대구광역시 동구 각산동 134,1006,10025,1024,,
988,용연지,,,27,대구광역시 달성군 현풍읍 대리 363,1006,10025,977,,
989,대구수목원,,,27,대구 달서구 화암로 342-0,1006,10026,125900,,
990,비슬산자연휴양림,,,27,대구 달성군 일연선사길 99-0,1006,10026,42657,,
991,화원자연휴양림,,,27,대구 달성군 화원휴양림길 126-0,1006,10026,11178,,
992,비슬산군립공원,,,27,대구 달성군 유가읍 양리 산5,1006,10026,10139,,
993,대한수목원,,,27,대구 동구 파계로 446-42,1006,10026,8492,,
994,마천산산림욕장,,,27,대구 달성군 다사읍 이천리 산41,1006,10026,1069,,
995,수목원생활온천,,,27,대구 달서구 상화로 79-0,1007,10028,13580,,
996,스파밸리휴업중,,,27,대구 달성군 가창로 891-0,1007,10028,11403,,
997,팔공산심천랜드,,,27,대구 동구 서촌로 145-0,1007,10028,7125,,
998,미성온천,,,27,대구 달서구 조암남로28길 9-0,1007,10028,6703,,
999,서변온천,,,27,대구 북구 호국로 219-0,1007,10028,2341,,
1000,화원식염온천,,,27,대구 달성군 비슬로530길 29-15,1007,10028,801,,
